              TDR Cartesian                         TDR Cartesian  
    -----------------------------------       --------------------------------
     X    =       -6118165.08                 X    =        -1864816.72
     Y    =      -18790404.12  feet           Y    =        -5727315.18  meter
     Z    =      -10246522.05                 Z    =        -3123139.92
     XDOT =      12783.327503                 XDOT =        3896.358223
     YDOT =     -12859.105941  feet/sec       YDOT =       -3919.455491  meter/sec
     ZDOT =      15969.800111                 ZDOT =        4867.595074
  
  
    The mean element set is posted at the UTC for which position is
    just north of the next ascending node relative to the above
    vector time
 
 
    TWO LINE MEAN ELEMENT SET
  
    ISS
    1 25544U 98067A   16078.17205094  .00016717  00000-0  10270-3 0  9108
    2 25544  51.6394 151.9541 0001988 314.9859  45.1132 15.54190182 30826
  
  
    Satellite: ISS
    Catalog Number: 25544
    Epoch time:      16078.17205094   =   yrday.fracday
    Element set:     910
    Inclination:       51.6394  deg
    RA of node:       151.9541  deg
    Eccentricity:     .0001988     
    Arg of perigee:   314.9859  deg
    Mean anomaly:      45.1132  deg
    Mean motion:   15.54190182  rev/day
    Decay rate:    1.67170E-04  rev/day^2
    Epoch rev:            3082
    Checksum:              308
 
 
    Coasting Arc #12 (Orbit 3093)
    ---------------------------------------
 
    Vector Time (GMT): 2016/078/21:26:42.000
    Vector Time (MET): N/A
    Weight (LBS)     : 890369.9
 
              M50 Cartesian                         M50 Keplerian  
    -----------------------------------       --------------------------------
     X    =       -3220975.74                 A    =         6777408.98  meter
     Y    =       -2833645.04  meter          E    =           .0001852
     Z    =        5245347.57                 I    =           51.81693
     XDOT =       5909.275407                 Wp   =          105.34487
     YDOT =      -4776.622585  meter/sec      RA   =          147.27431  deg
     ZDOT =       1047.453764                 TA   =          334.64569
                                              MA   =          334.65478
                                              Ha   =            220.530  n.mi
                                              Hp   =            214.978
 
              M50 Cartesian                         J2K Cartesian  
    -----------------------------------       --------------------------------
     X    =      -10567505.72                 X    =        -3214529.16
     Y    =       -9296735.69  feet           Y    =        -2869627.46  meter
     Z    =       17209145.56                 Z    =         5229717.06
     XDOT =      19387.386507                 XDOT =        5957.161582
     YDOT =     -15671.333941  feet/sec       YDOT =       -4710.273267  meter/sec
     ZDOT =       3436.528097                 ZDOT =        1076.276069
 
              TDR Cartesian                         TDR Cartesian  
    -----------------------------------       --------------------------------
     X    =        1640242.20                 X    =          499945.82
     Y    =       14061579.81  feet           Y    =         4285969.53  meter
     Z    =       17141695.99                 Z    =         5224788.94
     XDOT =     -23844.109808                 XDOT =       -7267.684669
     YDOT =      -1564.629362  feet/sec       YDOT =        -476.899029  meter/sec
     ZDOT =       3562.478286                 ZDOT =        1085.843382
  
  
    The mean element set is posted at the UTC for which position is
    just north of the next ascending node relative to the above
    vector time
 
 
    TWO LINE MEAN ELEMENT SET
  
    ISS
    1 25544U 98067A   16078.94364124  .00016717  00000-0  10270-3 0  9114
    2 25544  51.6416 148.1104 0002106 319.2505  40.8490 15.54240884 30940
  
  
    Satellite: ISS
    Catalog Number: 25544
    Epoch time:      16078.94364124   =   yrday.fracday
    Element set:     911
    Inclination:       51.6416  deg
    RA of node:       148.1104  deg
    Eccentricity:     .0002106     
    Arg of perigee:   319.2505  deg
    Mean anomaly:      40.8490  deg
    Mean motion:   15.54240884  rev/day
    Decay rate:    1.67170E-04  rev/day^2
    Epoch rev:            3094
    Checksum:              288
 
 
    Coasting Arc #13 (Orbit 3096)
    ---------------------------------------
 
    Vector Time (GMT): 2016/079/03:12:07.000
    Vector Time (MET): N/A
    Weight (LBS)     : 905478.2
 
              M50 Cartesian                         M50 Keplerian  
    -----------------------------------       --------------------------------
     X    =       -4693100.21                 A    =         6788009.35  meter
     Y    =        4641119.27  meter          E    =           .0008616
     Z    =       -1565925.36                 I    =           51.85738
     XDOT =      -4392.017970                 Wp   =           24.10775
     YDOT =      -2502.083614  meter/sec      RA   =          146.05663  deg
     ZDOT =       5766.046242                 TA   =          318.82395
                                              MA   =          318.88892
                                              Ha   =            220.427  n.mi
                                              Hp   =            215.035
 
              M50 Cartesian                         J2K Cartesian  
    -----------------------------------       --------------------------------
     X    =      -15397310.39                 X    =        -4737043.06
     Y    =       15226769.26  feet           Y    =         4588392.01  meter
     Z    =       -5137550.41                 Z    =        -1588830.29
     XDOT =     -14409.507775                 XDOT =       -4391.721255
     YDOT =      -8208.935741  feet/sec       YDOT =       -2551.195707  meter/sec
     ZDOT =      18917.474548                 ZDOT =        5744.712213
 
              TDR Cartesian                         TDR Cartesian  
    -----------------------------------       --------------------------------
     X    =         367738.21                 X    =          112086.61
     Y    =      -21627679.97  feet           Y    =        -6592116.86  meter
     Z    =       -5237778.28                 Z    =        -1596474.82
     XDOT =      14555.761709                 XDOT =        4436.596169
     YDOT =      -4296.905899  feet/sec       YDOT =       -1309.696918  meter/sec
     ZDOT =      18825.195709                 ZDOT =        5737.919652
  
  
    The mean element set is posted at the UTC for which position is
    just north of the next ascending node relative to the above
    vector time
 
 
    TWO LINE MEAN ELEMENT SET
  
    ISS
    1 25544U 98067A   16079.13653690  .00016717  00000-0  10270-3 0  9126
    2 25544  51.6403 147.1470 0002124 317.7295  42.3694 15.54209633 30973
  
  
    Satellite: ISS
    Catalog Number: 25544
    Epoch time:      16079.13653690   =   yrday.fracday
    Element set:     912
    Inclination:       51.6403  deg
    RA of node:       147.1470  deg
    Eccentricity:     .0002124     
    Arg of perigee:   317.7295  deg
    Mean anomaly:      42.3694  deg
    Mean motion:   15.54209633  rev/day
    Decay rate:    1.67170E-04  rev/day^2
    Epoch rev:            3097
    Checksum:              303
 
 
    Coasting Arc #14 (Orbit 3112)
    ---------------------------------------
 
    Vector Time (GMT): 2016/080/03:12:07.000
    Vector Time (MET): N/A
    Weight (LBS)     : 905478.2
 
              M50 Cartesian                         M50 Keplerian  
    -----------------------------------       --------------------------------
     X    =        5368031.13                 A    =         6788964.66  meter
     Y    =       -4144972.86  meter          E    =           .0009635
     Z    =        -184755.87                 I    =           51.88738
     XDOT =       2767.687811                 Wp   =          133.88776
     YDOT =       3844.099529  meter/sec      RA   =          141.10165  deg
     ZDOT =      -6029.220647                 TA   =           48.09569
                                              MA   =           48.01355
                                              Ha   =            220.502  n.mi
                                              Hp   =            214.910
 
              M50 Cartesian                         J2K Cartesian  
    -----------------------------------       --------------------------------
     X    =       17611650.69                 X    =         5414879.74
     Y    =      -13598992.33  feet           Y    =        -4084682.05  meter
     Z    =        -606154.44                 Z    =         -158565.26
     XDOT =       9080.340587                 XDOT =        2753.783461
     YDOT =      12611.875096  feet/sec       YDOT =        3874.971074  meter/sec
     ZDOT =     -19780.907635                 ZDOT =       -6015.810373
 
              TDR Cartesian                         TDR Cartesian  
    -----------------------------------       --------------------------------
     X    =       -2736053.19                 X    =         -833949.01
     Y    =       22084892.58  feet           Y    =         6731475.26  meter
     Z    =        -491719.63                 Z    =         -149876.14
     XDOT =     -13827.929508                 XDOT =       -4214.752914
     YDOT =      -2134.082569  feet/sec       YDOT =        -650.468367  meter/sec
     ZDOT =     -19723.256873                 ZDOT =       -6011.648695
  
  
    The mean element set is posted at the UTC for which position is
    just north of the next ascending node relative to the above
    vector time
 
 
    TWO LINE MEAN ELEMENT SET
  
    ISS
    1 25544U 98067A   16080.16530755  .00016717  00000-0  10270-3 0  9138
    2 25544  51.6407 142.0178 0002215 325.5624  34.5385 15.54250091 31133
  
